SL-4 R/B                
1 39679U 14021B   26040.44127119  .00012371  00000+0  28236-3 0  9990
2 39679  51.6063 114.9851 0098970   0.0384   0.0590 15.38270301651921
ALOS-2                  
1 39766U 14029A   26040.17776193  .00000772  00000+0  11021-3 0  9993
2 39766  97.9210 139.1853 0001503  96.1098 264.0285 14.79501772632655
YAOGAN-29               
1 41038U 15069A   26040.52332740  .00000695  00000+0  92246-4 0  9991
2 41038  98.0178  68.8738 0002917  82.2537 277.9007 14.82964508551704
ASTRO-H (HITOMI)        
1 41337U 16012A   26040.47237487  .00004054  00000+0  23892-3 0  9991
2 41337  30.9978 178.6091 0009905  48.6765 311.4725 15.09798552547962
HXMT (HUIYAN)           
1 42758U 17034A   26040.53614551  .00006647  00000+0  33723-3 0  9996
2 42758  43.0126 173.1490 0030828  55.1904 305.1838 15.17088633478261
CZ-2C R/B               
1 43521U 18054D   26040.44769631  .00375108  56751-4  82865-3 0  9999
2 43521  35.1283 137.4948 0012554  30.1545 329.9915 15.96793654424362
SAOCOM 1A               
1 43641U 18076A   26040.54106182  .00000670  00000+0  90695-4 0  9994
2 43641  97.8873 229.1124 0001369  85.5564 274.5806 14.82159691397192
H-2A R/B                
1 43682U 18084L   26040.48123906  .00023650  00000+0  58518-3 0  9994
2 43682  98.8763 251.8664 0026299 120.0687 240.3167 15.40106468401430
SAOCOM 1B               
1 46265U 20059A   26040.50478573  .00000249  00000+0  37819-4 0  9996
2 46265  97.8872 228.1751 0001356  84.6762 275.4605 14.82165943294579
CSS (TIANHE)            
1 48274U 21035A   26040.41958422  .00018345  00000+0  22932-3 0  9994
2 48274  41.4684  20.0103 0004697  39.0740 321.0437 15.59384169273192
COSMOS 2550             
1 48865U 21056A   26040.54328056 -.00000111  00000+0  24577-5 0  9993
2 48865  67.1449 126.0706 0008416 270.1404  89.8786 15.33829247259144
CZ-2C R/B               
1 52794U 22058K   26040.39773927  .00033074  00000+0  52000-3 0  9999
2 52794  50.1885 103.5986 0042306  80.5036 280.0712 15.52239416205730
