CCSDS_OMM_VERS = 2.0
CREATION_DATE  = 
ORIGINATOR     = 

OBJECT_NAME    = SL-4 R/B
OBJECT_ID      = 2014-021B
CENTER_NAME    = EARTH
REF_FRAME      = TEME
TIME_SYSTEM    = UTC
MEAN_ELEMENT_THEORY = SGP/SGP4

EPOCH          = 2026-02-09T10:35:25.830816
MEAN_MOTION    = 15.38270301
ECCENTRICITY   = .009897
INCLINATION    = 51.6063
RA_OF_ASC_NODE = 114.9851
ARG_OF_PERICENTER = 0.0384
MEAN_ANOMALY   = 0.0590

EPHEMERIS_TYPE = 0
CLASSIFICATION_TYPE = U
NORAD_CAT_ID   = 39679
ELEMENT_SET_NO = 999
REV_AT_EPOCH   = 65192
BSTAR          = .28236E-3
MEAN_MOTION_DOT = .12371E-3
MEAN_MOTION_DDOT = 0

CCSDS_OMM_VERS = 2.0
CREATION_DATE  = 
ORIGINATOR     = 

OBJECT_NAME    = ALOS-2
OBJECT_ID      = 2014-029A
CENTER_NAME    = EARTH
REF_FRAME      = TEME
TIME_SYSTEM    = UTC
MEAN_ELEMENT_THEORY = SGP/SGP4

EPOCH          = 2026-02-09T04:15:58.630752
MEAN_MOTION    = 14.79501772
ECCENTRICITY   = .00015039
INCLINATION    = 97.9210
RA_OF_ASC_NODE = 139.1853
ARG_OF_PERICENTER = 96.1098
MEAN_ANOMALY   = 264.0285

EPHEMERIS_TYPE = 0
CLASSIFICATION_TYPE = U
NORAD_CAT_ID   = 39766
ELEMENT_SET_NO = 999
REV_AT_EPOCH   = 63265
BSTAR          = .11020671E-3
MEAN_MOTION_DOT = .772E-5
MEAN_MOTION_DDOT = 0

CCSDS_OMM_VERS = 2.0
CREATION_DATE  = 
ORIGINATOR     = 

OBJECT_NAME    = YAOGAN-29
OBJECT_ID      = 2015-069A
CENTER_NAME    = EARTH
REF_FRAME      = TEME
TIME_SYSTEM    = UTC
MEAN_ELEMENT_THEORY = SGP/SGP4

EPOCH          = 2026-02-09T12:33:35.487360
MEAN_MOTION    = 14.82964508
ECCENTRICITY   = .0002917
INCLINATION    = 98.0178
RA_OF_ASC_NODE = 68.8738
ARG_OF_PERICENTER = 82.2537
MEAN_ANOMALY   = 277.9007

EPHEMERIS_TYPE = 0
CLASSIFICATION_TYPE = U
NORAD_CAT_ID   = 41038
ELEMENT_SET_NO = 999
REV_AT_EPOCH   = 55170
BSTAR          = .92246E-4
MEAN_MOTION_DOT = .695E-5
MEAN_MOTION_DDOT = 0

CCSDS_OMM_VERS = 2.0
CREATION_DATE  = 
ORIGINATOR     = 

OBJECT_NAME    = ASTRO-H (HITOMI)
OBJECT_ID      = 2016-012A
CENTER_NAME    = EARTH
REF_FRAME      = TEME
TIME_SYSTEM    = UTC
MEAN_ELEMENT_THEORY = SGP/SGP4

EPOCH          = 2026-02-09T11:20:13.188768
MEAN_MOTION    = 15.09798552
ECCENTRICITY   = .0009905
INCLINATION    = 30.9978
RA_OF_ASC_NODE = 178.6091
ARG_OF_PERICENTER = 48.6765
MEAN_ANOMALY   = 311.4725

EPHEMERIS_TYPE = 0
CLASSIFICATION_TYPE = U
NORAD_CAT_ID   = 41337
ELEMENT_SET_NO = 999
REV_AT_EPOCH   = 54796
BSTAR          = .23892E-3
MEAN_MOTION_DOT = .4054E-4
MEAN_MOTION_DDOT = 0

CCSDS_OMM_VERS = 2.0
CREATION_DATE  = 
ORIGINATOR     = 

OBJECT_NAME    = HXMT (HUIYAN)
OBJECT_ID      = 2017-034A
CENTER_NAME    = EARTH
REF_FRAME      = TEME
TIME_SYSTEM    = UTC
MEAN_ELEMENT_THEORY = SGP/SGP4

EPOCH          = 2026-02-09T12:52:02.972064
MEAN_MOTION    = 15.17088633
ECCENTRICITY   = .0030828
INCLINATION    = 43.0126
RA_OF_ASC_NODE = 173.1490
ARG_OF_PERICENTER = 55.1904
MEAN_ANOMALY   = 305.1838

EPHEMERIS_TYPE = 0
CLASSIFICATION_TYPE = U
NORAD_CAT_ID   = 42758
ELEMENT_SET_NO = 999
REV_AT_EPOCH   = 47826
BSTAR          = .33723E-3
MEAN_MOTION_DOT = .6647E-4
MEAN_MOTION_DDOT = 0

CCSDS_OMM_VERS = 2.0
CREATION_DATE  = 
ORIGINATOR     = 

OBJECT_NAME    = CZ-2C R/B
OBJECT_ID      = 2018-054D
CENTER_NAME    = EARTH
REF_FRAME      = TEME
TIME_SYSTEM    = UTC
MEAN_ELEMENT_THEORY = SGP/SGP4

EPOCH          = 2026-02-09T10:44:40.961184
MEAN_MOTION    = 15.96793654
ECCENTRICITY   = .0012554
INCLINATION    = 35.1283
RA_OF_ASC_NODE = 137.4948
ARG_OF_PERICENTER = 30.1545
MEAN_ANOMALY   = 329.9915

EPHEMERIS_TYPE = 0
CLASSIFICATION_TYPE = U
NORAD_CAT_ID   = 43521
ELEMENT_SET_NO = 999
REV_AT_EPOCH   = 42436
BSTAR          = .82865E-3
MEAN_MOTION_DOT = .375108E-2
MEAN_MOTION_DDOT = .56751E-4

CCSDS_OMM_VERS = 2.0
CREATION_DATE  = 
ORIGINATOR     = 

OBJECT_NAME    = SAOCOM 1A
OBJECT_ID      = 2018-076A
CENTER_NAME    = EARTH
REF_FRAME      = TEME
TIME_SYSTEM    = UTC
MEAN_ELEMENT_THEORY = SGP/SGP4

EPOCH          = 2026-02-09T12:59:07.741248
MEAN_MOTION    = 14.82159691
ECCENTRICITY   = .0001369
INCLINATION    = 97.8873
RA_OF_ASC_NODE = 229.1124
ARG_OF_PERICENTER = 85.5564
MEAN_ANOMALY   = 274.5806

EPHEMERIS_TYPE = 0
CLASSIFICATION_TYPE = U
NORAD_CAT_ID   = 43641
ELEMENT_SET_NO = 999
REV_AT_EPOCH   = 39719
BSTAR          = .90695E-4
MEAN_MOTION_DOT = .67E-5
MEAN_MOTION_DDOT = 0

CCSDS_OMM_VERS = 2.0
CREATION_DATE  = 
ORIGINATOR     = 

OBJECT_NAME    = H-2A R/B
OBJECT_ID      = 2018-084L
CENTER_NAME    = EARTH
REF_FRAME      = TEME
TIME_SYSTEM    = UTC
MEAN_ELEMENT_THEORY = SGP/SGP4

EPOCH          = 2026-02-09T11:32:59.054784
MEAN_MOTION    = 15.40106468
ECCENTRICITY   = .0026299
INCLINATION    = 98.8763
RA_OF_ASC_NODE = 251.8664
ARG_OF_PERICENTER = 120.0687
MEAN_ANOMALY   = 240.3167

EPHEMERIS_TYPE = 0
CLASSIFICATION_TYPE = U
NORAD_CAT_ID   = 43682
ELEMENT_SET_NO = 999
REV_AT_EPOCH   = 40143
BSTAR          = .58518E-3
MEAN_MOTION_DOT = .2365E-3
MEAN_MOTION_DDOT = 0

CCSDS_OMM_VERS = 2.0
CREATION_DATE  = 
ORIGINATOR     = 

OBJECT_NAME    = SAOCOM 1B
OBJECT_ID      = 2020-059A
CENTER_NAME    = EARTH
REF_FRAME      = TEME
TIME_SYSTEM    = UTC
MEAN_ELEMENT_THEORY = SGP/SGP4

EPOCH          = 2026-02-09T12:06:53.487072
MEAN_MOTION    = 14.82165943
ECCENTRICITY   = .0001356
INCLINATION    = 97.8872
RA_OF_ASC_NODE = 228.1751
ARG_OF_PERICENTER = 84.6762
MEAN_ANOMALY   = 275.4605

EPHEMERIS_TYPE = 0
CLASSIFICATION_TYPE = U
NORAD_CAT_ID   = 46265
ELEMENT_SET_NO = 999
REV_AT_EPOCH   = 29457
BSTAR          = .37819E-4
MEAN_MOTION_DOT = .249E-5
MEAN_MOTION_DDOT = 0

CCSDS_OMM_VERS = 2.0
CREATION_DATE  = 
ORIGINATOR     = 

OBJECT_NAME    = CSS (TIANHE)
OBJECT_ID      = 2021-035A
CENTER_NAME    = EARTH
REF_FRAME      = TEME
TIME_SYSTEM    = UTC
MEAN_ELEMENT_THEORY = SGP/SGP4

EPOCH          = 2026-02-09T10:04:12.076608
MEAN_MOTION    = 15.59384169
ECCENTRICITY   = .0004697
INCLINATION    = 41.4684
RA_OF_ASC_NODE = 20.0103
ARG_OF_PERICENTER = 39.0740
MEAN_ANOMALY   = 321.0437

EPHEMERIS_TYPE = 0
CLASSIFICATION_TYPE = U
NORAD_CAT_ID   = 48274
ELEMENT_SET_NO = 999
REV_AT_EPOCH   = 27319
BSTAR          = .22932E-3
MEAN_MOTION_DOT = .18345E-3
MEAN_MOTION_DDOT = 0

CCSDS_OMM_VERS = 2.0
CREATION_DATE  = 
ORIGINATOR     = 

OBJECT_NAME    = COSMOS 2550
OBJECT_ID      = 2021-056A
CENTER_NAME    = EARTH
REF_FRAME      = TEME
TIME_SYSTEM    = UTC
MEAN_ELEMENT_THEORY = SGP/SGP4

EPOCH          = 2026-02-09T13:02:19.440384
MEAN_MOTION    = 15.33829247
ECCENTRICITY   = .0008416
INCLINATION    = 67.1449
RA_OF_ASC_NODE = 126.0706
ARG_OF_PERICENTER = 270.1404
MEAN_ANOMALY   = 89.8786

EPHEMERIS_TYPE = 0
CLASSIFICATION_TYPE = U
NORAD_CAT_ID   = 48865
ELEMENT_SET_NO = 999
REV_AT_EPOCH   = 25914
BSTAR          = .24577E-5
MEAN_MOTION_DOT = -.111E-5
MEAN_MOTION_DDOT = 0

CCSDS_OMM_VERS = 2.0
CREATION_DATE  = 
ORIGINATOR     = 

OBJECT_NAME    = CZ-2C R/B
OBJECT_ID      = 2022-058K
CENTER_NAME    = EARTH
REF_FRAME      = TEME
TIME_SYSTEM    = UTC
MEAN_ELEMENT_THEORY = SGP/SGP4

EPOCH          = 2026-02-09T09:32:44.672928
MEAN_MOTION    = 15.52239416
ECCENTRICITY   = .0042306
INCLINATION    = 50.1885
RA_OF_ASC_NODE = 103.5986
ARG_OF_PERICENTER = 80.5036
MEAN_ANOMALY   = 280.0712

EPHEMERIS_TYPE = 0
CLASSIFICATION_TYPE = U
NORAD_CAT_ID   = 52794
ELEMENT_SET_NO = 999
REV_AT_EPOCH   = 20573
BSTAR          = .52E-3
MEAN_MOTION_DOT = .33074E-3
MEAN_MOTION_DDOT = 0

